{
  "norad_id": 48019,
  "name": "STARLINK-2285",
  "history": [
    {
      "epoch": "2026-03-28T15:21:37.231200Z",
      "apogee_km": 476.15106848842424,
      "perigee_km": 474.2389888524258,
      "latitude_deg": -4.784233592600266e-05,
      "longitude_deg": 162.37547170177658,
      "height_km": 476.0988707489067,
      "semi_major_axis_km": 6853.332028670425,
      "eccentricity": 0.0001395,
      "inclination_deg": 53.1613,
      "raan_deg": 218.8382,
      "arg_perigee_deg": 90.347,
      "mean_anomaly_deg": 269.769,
      "mean_motion_rev_day": 15.30206712
    }
  ]
}