{"fetched_at":"2026-03-29T02:12:04Z","count":15717,"tles":[{"name":"STARLINK-2285","line1":"1 48019U 21024AU  26087.64001425  .00000536  00000+0  30233-4 0  9994","line2":"2 48019  53.1613 218.8382 0001395  90.3470 269.7690 15.30206712277828","category":"Starlink"}]}